<xml>
<item>
<COMMENT>GENERATED VIA SPACETRACK.ORG API</COMMENT>
<ORIGINATOR>18 SPCS</ORIGINATOR>
<NORAD_CAT_ID>56485</NORAD_CAT_ID>
<OBJECT_NAME>STARLINK-6210</OBJECT_NAME>
<OBJECT_TYPE>PAYLOAD</OBJECT_TYPE>
<CLASSIFICATION_TYPE>U</CLASSIFICATION_TYPE>
<INTLDES>23064AP</INTLDES>
<EPOCH>2023-10-11 19:01:23</EPOCH>
<EPOCH_MICROSECONDS>206080</EPOCH_MICROSECONDS>
<MEAN_MOTION>14.98321391</MEAN_MOTION>
<ECCENTRICITY>0.0002695</ECCENTRICITY>
<INCLINATION>70</INCLINATION>
<RA_OF_ASC_NODE>182.8087</RA_OF_ASC_NODE>
<ARG_OF_PERICENTER>272.0494</ARG_OF_PERICENTER>
<MEAN_ANOMALY>88.0357</MEAN_ANOMALY>
<EPHEMERIS_TYPE>0</EPHEMERIS_TYPE>
<ELEMENT_SET_NO>999</ELEMENT_SET_NO>
<REV_AT_EPOCH>2430</REV_AT_EPOCH>
<BSTAR>0.000080891</BSTAR>
<MEAN_MOTION_DOT>0.00000872</MEAN_MOTION_DOT>
<MEAN_MOTION_DDOT>0</MEAN_MOTION_DDOT>
<FILE>4031326</FILE>
<TLE_LINE0>0 STARLINK-6210</TLE_LINE0>
<TLE_LINE1>1 56485U 23064AP 23284.79262970 .00000872 00000-0 80891-4 0 9991</TLE_LINE1>
<TLE_LINE2>2 56485 70.0000 182.8087 0002695 272.0494 88.0357 14.98321391 24302</TLE_LINE2>
<OBJECT_ID>2023-064AP</OBJECT_ID>
<OBJECT_NUMBER>56485</OBJECT_NUMBER>
<SEMIMAJOR_AXIS>6950.220</SEMIMAJOR_AXIS>
<PERIOD>96.108</PERIOD>
<APOGEE>573.958</APOGEE>
<PERIGEE>570.211</PERIGEE>
<DECAYED>0</DECAYED>
</item>
<item>
<COMMENT>GENERATED VIA SPACETRACK.ORG API</COMMENT>
<ORIGINATOR>18 SPCS</ORIGINATOR>
<NORAD_CAT_ID>55419</NORAD_CAT_ID>
<OBJECT_NAME>STARLINK-5629</OBJECT_NAME>
<OBJECT_TYPE>PAYLOAD</OBJECT_TYPE>
<CLASSIFICATION_TYPE>U</CLASSIFICATION_TYPE>
<INTLDES>23014AE</INTLDES>
<EPOCH>2023-10-11 23:49:07</EPOCH>
<EPOCH_MICROSECONDS>972032</EPOCH_MICROSECONDS>
<MEAN_MOTION>14.98309826</MEAN_MOTION>
<ECCENTRICITY>0.0002754</ECCENTRICITY>
<INCLINATION>70</INCLINATION>
<RA_OF_ASC_NODE>142.4254</RA_OF_ASC_NODE>
<ARG_OF_PERICENTER>259.9888</ARG_OF_PERICENTER>
<MEAN_ANOMALY>100.0961</MEAN_ANOMALY>
<EPHEMERIS_TYPE>0</EPHEMERIS_TYPE>
<ELEMENT_SET_NO>999</ELEMENT_SET_NO>
<REV_AT_EPOCH>3885</REV_AT_EPOCH>
<BSTAR>0.00028392</BSTAR>
<MEAN_MOTION_DOT>0.00003295</MEAN_MOTION_DOT>
<MEAN_MOTION_DDOT>0</MEAN_MOTION_DDOT>
<FILE>4031477</FILE>
<TLE_LINE0>0 STARLINK-5629</TLE_LINE0>
<TLE_LINE1>1 55419U 23014AE 23284.99245338 .00003295 00000-0 28392-3 0 9992</TLE_LINE1>
<TLE_LINE2>2 55419 70.0000 142.4254 0002754 259.9888 100.0961 14.98309826 38853</TLE_LINE2>
<OBJECT_ID>2023-014AE</OBJECT_ID>
<OBJECT_NUMBER>55419</OBJECT_NUMBER>
<SEMIMAJOR_AXIS>6950.255</SEMIMAJOR_AXIS>
<PERIOD>96.108</PERIOD>
<APOGEE>574.034</APOGEE>
<PERIGEE>570.206</PERIGEE>
<DECAYED>0</DECAYED>
</item>
<item>
<COMMENT>GENERATED VIA SPACETRACK.ORG API</COMMENT>
<ORIGINATOR>18 SPCS</ORIGINATOR>
<NORAD_CAT_ID>55432</NORAD_CAT_ID>
<OBJECT_NAME>STARLINK-5637</OBJECT_NAME>
<OBJECT_TYPE>PAYLOAD</OBJECT_TYPE>
<CLASSIFICATION_TYPE>U</CLASSIFICATION_TYPE>
<INTLDES>23014AT</INTLDES>
<EPOCH>2023-10-12 02:01:39</EPOCH>
<EPOCH_MICROSECONDS>94464</EPOCH_MICROSECONDS>
<MEAN_MOTION>14.98331422</MEAN_MOTION>
<ECCENTRICITY>0.0002947</ECCENTRICITY>
<INCLINATION>70</INCLINATION>
<RA_OF_ASC_NODE>162.2044</RA_OF_ASC_NODE>
<ARG_OF_PERICENTER>264.9334</ARG_OF_PERICENTER>
<MEAN_ANOMALY>95.1488</MEAN_ANOMALY>
<EPHEMERIS_TYPE>0</EPHEMERIS_TYPE>
<ELEMENT_SET_NO>999</ELEMENT_SET_NO>
<REV_AT_EPOCH>3837</REV_AT_EPOCH>
<BSTAR>0.00012796</BSTAR>
<MEAN_MOTION_DOT>0.00001434</MEAN_MOTION_DOT>
<MEAN_MOTION_DDOT>0</MEAN_MOTION_DDOT>
<FILE>4031471</FILE>
<TLE_LINE0>0 STARLINK-5637</TLE_LINE0>
<TLE_LINE1>1 55432U 23014AT 23285.08448026 .00001434 00000-0 12796-3 0 9991</TLE_LINE1>
<TLE_LINE2>2 55432 70.0000 162.2044 0002947 264.9334 95.1488 14.98331422 38373</TLE_LINE2>
<OBJECT_ID>2023-014AT</OBJECT_ID>
<OBJECT_NUMBER>55432</OBJECT_NUMBER>
<SEMIMAJOR_AXIS>6950.188</SEMIMAJOR_AXIS>
<PERIOD>96.107</PERIOD>
<APOGEE>574.102</APOGEE>
<PERIGEE>570.005</PERIGEE>
<DECAYED>0</DECAYED>
</item>
<item>
<COMMENT>GENERATED VIA SPACETRACK.ORG API</COMMENT>
<ORIGINATOR>18 SPCS</ORIGINATOR>
<NORAD_CAT_ID>55432</NORAD_CAT_ID>
<OBJECT_NAME>STARLINK-5637</OBJECT_NAME>
<OBJECT_TYPE>PAYLOAD</OBJECT_TYPE>
<CLASSIFICATION_TYPE>U</CLASSIFICATION_TYPE>
<INTLDES>23014AT</INTLDES>
<EPOCH>2023-10-12 02:01:39</EPOCH>
<EPOCH_MICROSECONDS>94464</EPOCH_MICROSECONDS>
<MEAN_MOTION>14.98331422</MEAN_MOTION>
<ECCENTRICITY>0.0002947</ECCENTRICITY>
<INCLINATION>70</INCLINATION>
<RA_OF_ASC_NODE>162.2044</RA_OF_ASC_NODE>
<ARG_OF_PERICENTER>264.9334</ARG_OF_PERICENTER>
<MEAN_ANOMALY>95.1488</MEAN_ANOMALY>
<EPHEMERIS_TYPE>0</EPHEMERIS_TYPE>
<ELEMENT_SET_NO>999</ELEMENT_SET_NO>
<REV_AT_EPOCH>3931</REV_AT_EPOCH>
<BSTAR>0.00012796</BSTAR>
<MEAN_MOTION_DOT>0.00001434</MEAN_MOTION_DOT>
<MEAN_MOTION_DDOT>0</MEAN_MOTION_DDOT>
<FILE>4031907</FILE>
<TLE_LINE0>0 STARLINK-5637</TLE_LINE0>
<TLE_LINE1>1 55432U 23014AT 23285.08448026 .00001434 00000-0 12796-3 0 9991</TLE_LINE1>
<TLE_LINE2>2 55432 70.0000 162.2044 0002947 264.9334 95.1488 14.98331422 39318</TLE_LINE2>
<OBJECT_ID>2023-014AT</OBJECT_ID>
<OBJECT_NUMBER>55432</OBJECT_NUMBER>
<SEMIMAJOR_AXIS>6950.188</SEMIMAJOR_AXIS>
<PERIOD>96.107</PERIOD>
<APOGEE>574.102</APOGEE>
<PERIGEE>570.005</PERIGEE>
<DECAYED>0</DECAYED>
</item>
<item>
<COMMENT>GENERATED VIA SPACETRACK.ORG API</COMMENT>
<ORIGINATOR>18 SPCS</ORIGINATOR>
<NORAD_CAT_ID>56487</NORAD_CAT_ID>
<OBJECT_NAME>STARLINK-6196</OBJECT_NAME>
<OBJECT_TYPE>PAYLOAD</OBJECT_TYPE>
<CLASSIFICATION_TYPE>U</CLASSIFICATION_TYPE>
<INTLDES>23064AR</INTLDES>
<EPOCH>2023-10-12 02:22:40</EPOCH>
<EPOCH_MICROSECONDS>865376</EPOCH_MICROSECONDS>
<MEAN_MOTION>15.6991637</MEAN_MOTION>
<ECCENTRICITY>0.000309</ECCENTRICITY>
<INCLINATION>70</INCLINATION>
<RA_OF_ASC_NODE>171.2612</RA_OF_ASC_NODE>
<ARG_OF_PERICENTER>264.0659</ARG_OF_PERICENTER>
<MEAN_ANOMALY>96.0185</MEAN_ANOMALY>
<EPHEMERIS_TYPE>0</EPHEMERIS_TYPE>
<ELEMENT_SET_NO>999</ELEMENT_SET_NO>
<REV_AT_EPOCH>2460</REV_AT_EPOCH>
<BSTAR>-0.000039145</BSTAR>
<MEAN_MOTION_DOT>-0.00004915</MEAN_MOTION_DOT>
<MEAN_MOTION_DDOT>0</MEAN_MOTION_DDOT>
<FILE>4031613</FILE>
<TLE_LINE0>0 STARLINK-6196</TLE_LINE0>
<TLE_LINE1>1 56487U 23064AR 23285.09908409 -.00004915 00000-0 -39145-4 0 9991</TLE_LINE1>
<TLE_LINE2>2 56487 70.0000 171.2612 0003090 264.0659 96.0185 15.69916370 24601</TLE_LINE2>
<OBJECT_ID>2023-064AR</OBJECT_ID>
<OBJECT_NUMBER>56487</OBJECT_NUMBER>
<SEMIMAJOR_AXIS>6737.273</SEMIMAJOR_AXIS>
<PERIOD>91.725</PERIOD>
<APOGEE>361.220</APOGEE>
<PERIGEE>357.056</PERIGEE>
<DECAYED>0</DECAYED>
</item>
<item>
<COMMENT>GENERATED VIA SPACETRACK.ORG API</COMMENT>
<ORIGINATOR>18 SPCS</ORIGINATOR>
<NORAD_CAT_ID>56487</NORAD_CAT_ID>
<OBJECT_NAME>STARLINK-6196</OBJECT_NAME>
<OBJECT_TYPE>PAYLOAD</OBJECT_TYPE>
<CLASSIFICATION_TYPE>U</CLASSIFICATION_TYPE>
<INTLDES>23064AR</INTLDES>
<EPOCH>2023-10-12 02:22:40</EPOCH>
<EPOCH_MICROSECONDS>865376</EPOCH_MICROSECONDS>
<MEAN_MOTION>15.6991637</MEAN_MOTION>
<ECCENTRICITY>0.000309</ECCENTRICITY>
<INCLINATION>70</INCLINATION>
<RA_OF_ASC_NODE>171.2612</RA_OF_ASC_NODE>
<ARG_OF_PERICENTER>264.0659</ARG_OF_PERICENTER>
<MEAN_ANOMALY>96.0185</MEAN_ANOMALY>
<EPHEMERIS_TYPE>0</EPHEMERIS_TYPE>
<ELEMENT_SET_NO>999</ELEMENT_SET_NO>
<REV_AT_EPOCH>2425</REV_AT_EPOCH>
<BSTAR>-0.000039145</BSTAR>
<MEAN_MOTION_DOT>-0.00004915</MEAN_MOTION_DOT>
<MEAN_MOTION_DDOT>0</MEAN_MOTION_DDOT>
<FILE>4031907</FILE>
<TLE_LINE0>0 STARLINK-6196</TLE_LINE0>
<TLE_LINE1>1 56487U 23064AR 23285.09908409 -.00004915 00000-0 -39145-4 0 9991</TLE_LINE1>
<TLE_LINE2>2 56487 70.0000 171.2612 0003090 264.0659 96.0185 15.69916370 24252</TLE_LINE2>
<OBJECT_ID>2023-064AR</OBJECT_ID>
<OBJECT_NUMBER>56487</OBJECT_NUMBER>
<SEMIMAJOR_AXIS>6737.273</SEMIMAJOR_AXIS>
<PERIOD>91.725</PERIOD>
<APOGEE>361.220</APOGEE>
<PERIGEE>357.056</PERIGEE>
<DECAYED>0</DECAYED>
</item>
<item>
<COMMENT>GENERATED VIA SPACETRACK.ORG API</COMMENT>
<ORIGINATOR>18 SPCS</ORIGINATOR>
<NORAD_CAT_ID>56472</NORAD_CAT_ID>
<OBJECT_NAME>STARLINK-5038</OBJECT_NAME>
<OBJECT_TYPE>PAYLOAD</OBJECT_TYPE>
<CLASSIFICATION_TYPE>U</CLASSIFICATION_TYPE>
<INTLDES>23064AA</INTLDES>
<EPOCH>2023-10-12 02:32:18</EPOCH>
<EPOCH_MICROSECONDS>457152</EPOCH_MICROSECONDS>
<MEAN_MOTION>14.986447</MEAN_MOTION>
<ECCENTRICITY>0.0002852</ECCENTRICITY>
<INCLINATION>70</INCLINATION>
<RA_OF_ASC_NODE>182.3</RA_OF_ASC_NODE>
<ARG_OF_PERICENTER>261.9471</ARG_OF_PERICENTER>
<MEAN_ANOMALY>98.1365</MEAN_ANOMALY>
<EPHEMERIS_TYPE>0</EPHEMERIS_TYPE>
<ELEMENT_SET_NO>999</ELEMENT_SET_NO>
<REV_AT_EPOCH>2434</REV_AT_EPOCH>
<BSTAR>-0.0047337</BSTAR>
<MEAN_MOTION_DOT>-0.0005658</MEAN_MOTION_DOT>
<MEAN_MOTION_DDOT>0</MEAN_MOTION_DDOT>
<FILE>4031648</FILE>
<TLE_LINE0>0 STARLINK-5038</TLE_LINE0>
<TLE_LINE1>1 56472U 23064AA 23285.10576918 -.00056580 00000-0 -47337-2 0 9998</TLE_LINE1>
<TLE_LINE2>2 56472 70.0000 182.3000 0002852 261.9471 98.1365 14.98644700 24342</TLE_LINE2>
<OBJECT_ID>2023-064AA</OBJECT_ID>
<OBJECT_NUMBER>56472</OBJECT_NUMBER>
<SEMIMAJOR_AXIS>6949.220</SEMIMAJOR_AXIS>
<PERIOD>96.087</PERIOD>
<APOGEE>573.067</APOGEE>
<PERIGEE>569.103</PERIGEE>
<DECAYED>0</DECAYED>
</item>

</xml>
